{
    "links": {
        "self": "http://www.neowsapp.com/rest/v1/neo/3771583?api_key=iIulBulltgU6a56xZRHN4H3l9WmuAYTsLGpBGhQ2"
    },
    "id": "3771583",
    "neo_reference_id": "3771583",
    "name": "(2017 FP)",
    "designation": "2017 FP",
    "nasa_jpl_url": "http://ssd.jpl.nasa.gov/sbdb.cgi?sstr=3771583",
    "absolute_magnitude_h": 25.5,
    "estimated_diameter": {
        "kilometers": {
            "estimated_diameter_min": 0.0211132445,
            "estimated_diameter_max": 0.0472106499
        },
        "meters": {
            "estimated_diameter_min": 21.113244479,
            "estimated_diameter_max": 47.2106498806
        },
        "miles": {
            "estimated_diameter_min": 0.0131191578,
            "estimated_diameter_max": 0.0293353287
        },
        "feet": {
            "estimated_diameter_min": 69.2691770164,
            "estimated_diameter_max": 154.8905885541
        }
    },
    "is_potentially_hazardous_asteroid": false,
    "close_approach_data": [
        {
            "close_approach_date": "2017-03-20",
            "close_approach_date_full": "2017-Mar-20 12:23",
            "epoch_date_close_approach": 1490012580000,
            "relative_velocity": {
                "kilometers_per_second": "5.7078875017",
                "kilometers_per_hour": "20548.3950061125",
                "miles_per_hour": "12767.9735525481"
            },
            "miss_distance": {
                "astronomical": "0.0610420392",
                "lunar": "23.7453532488",
                "kilometers": "9131759.044776504",
                "miles": "5674211.9537195952"
            },
            "orbiting_body": "Earth"
        },
        {
            "close_approach_date": "2183-05-02",
            "close_approach_date_full": "2183-May-02 03:37",
            "epoch_date_close_approach": 6732128220000,
            "relative_velocity": {
                "kilometers_per_second": "14.5696954968",
                "kilometers_per_hour": "52450.9037886362",
                "miles_per_hour": "32590.951856889"
            },
            "miss_distance": {
                "astronomical": "0.3178197613",
                "lunar": "123.6318871457",
                "kilometers": "47545159.334388431",
                "miles": "29543192.0743691078"
            },
            "orbiting_body": "Earth"
        }
    ],
    "orbital_data": {
        "orbit_id": "10",
        "orbit_determination_date": "2017-04-24 06:22:39",
        "first_observation_date": "2017-03-17",
        "last_observation_date": "2017-04-24",
        "data_arc_in_days": 38,
        "observations_used": 73,
        "orbit_uncertainty": "7",
        "minimum_orbit_intersection": ".0617624",
        "jupiter_tisserand_invariant": "3.536",
        "epoch_osculation": "2459000.5",
        "eccentricity": ".5063440281149684",
        "semi_major_axis": "2.14107899926848",
        "inclination": ".8877168852988385",
        "ascending_node_longitude": "173.5833952027503",
        "orbital_period": "1144.319936812423",
        "perihelion_distance": "1.056956434266512",
        "perihelion_argument": "1.498483351936332",
        "aphelion_distance": "3.225201564270447",
        "perihelion_time": "2458973.079930767346",
        "mean_anomaly": "8.626280645998779",
        "mean_motion": ".3145973328078189",
        "equinox": "J2000",
        "orbit_class": {
            "orbit_class_type": "AMO",
            "orbit_class_description": "Near-Earth asteroid orbits similar to that of 1221 Amor",
            "orbit_class_range": "1.017 AU < q (perihelion) < 1.3 AU"
        }
    },
    "is_sentry_object": false
}